OBJECT_NAME,OBJECT_ID,EPOCH,MEAN_MOTION,ECCENTRICITY,INCLINATION,RA_OF_ASC_NODE,ARG_OF_PERICENTER,MEAN_ANOMALY,EPHEMERIS_TYPE,CLASSIFICATION_TYPE,NORAD_CAT_ID,ELEMENT_SET_NO,REV_AT_EPOCH,BSTAR,MEAN_MOTION_DOT,MEAN_MOTION_DDOT
SAR-LUPE 2,2007-030A,2026-07-15T23:17:40.619328,15.53659119,.00048825,98.1062,305.0693,199.2835,160.8232,0,U,31797,999,6140,.24872271E-3,.15784E-3,0
SAPPHIRE,2013-009C,2026-07-15T22:53:51.533088,14.35247708,.00116335,98.4274,15.7287,157.7352,202.4341,0,U,39088,999,70070,.26832818E-4,.34E-6,0
PRAETORIAN SDA_602,2025-203A,2026-07-15T22:35:32.767872,13.83887917,.00070833,81.3045,344.1453,115.9015,244.2873,0,U,65565,999,4267,.12843519E-4,.26E-6,0
PRAETORIAN SDA_603,2025-203B,2026-07-15T21:32:06.794304,13.83962264,.00107283,81.3048,344.1076,113.1404,247.0884,0,U,65566,999,4267,.12058474E-3,.146E-5,0
PRAETORIAN SDA_604,2025-203C,2026-07-15T22:26:52.448064,13.83050057,.00065933,81.3067,344.5295,119.6204,240.5610,0,U,65567,999,4265,.9280103E-5,.22E-6,0
PRAETORIAN SDA_605,2025-203D,2026-07-15T21:28:42.634560,13.83200068,.00093293,81.3031,344.2072,111.5452,248.6699,0,U,65568,999,4266,.17322405E-4,.31E-6,0
PRAETORIAN SDA_606,2025-203E,2026-07-15T21:07:21.640512,13.83200114,.00071854,81.3068,344.4591,114.4820,245.7086,0,U,65569,999,4265,.12642543E-4,.26E-6,0
PRAETORIAN SDA_607,2025-203F,2026-07-15T22:37:12.019872,13.83758870,.00099913,81.3051,344.0210,112.9072,247.3140,0,U,65570,999,4268,.49706314E-4,.67E-6,0
PRAETORIAN SDA_608,2025-203G,2026-07-15T22:11:59.272512,13.83819485,.00070764,81.3020,344.2004,118.4881,241.6989,0,U,65571,999,4266,.18530118E-4,.32E-6,0
PRAETORIAN SDA_609,2025-203H,2026-07-15T22:07:20.387136,13.84210834,.00080186,81.3062,344.1813,113.0690,247.1313,0,U,65572,999,4267,.11008378E-3,.135E-5,0
PRAETORIAN SDA_610,2025-203J,2026-07-15T21:46:08.478048,13.83528236,.00078042,81.3022,344.1803,118.0745,242.1202,0,U,65573,999,4266,.32472357E-4,.48E-6,0
PRAETORIAN SDA_611,2025-203K,2026-07-15T21:59:08.007360,13.83311651,.00066742,81.3028,344.3545,122.2671,237.9133,0,U,65574,999,4265,-.18872155E-3,-.195E-5,0
PRAETORIAN SDA_612,2025-203L,2026-07-15T22:36:34.917120,13.85040798,.00103933,81.3043,343.8467,113.2451,246.9801,0,U,65575,999,4269,.80479982E-4,.103E-5,0
PRAETORIAN SDA_613,2025-203M,2026-07-15T22:25:06.127680,13.82767737,.00067883,81.3013,344.3576,113.1880,246.9991,0,U,65576,999,4265,.21370249E-4,.35E-6,0
PRAETORIAN SDA_614,2025-203N,2026-07-15T22:28:49.111392,13.84778586,.00082343,81.3028,343.9365,111.3970,248.8067,0,U,65577,999,4269,.9496985E-5,.23E-6,0
PRAETORIAN SDA_615,2025-203P,2026-07-15T22:05:43.303776,13.84438328,.00101359,81.3037,343.9335,111.8942,248.3293,0,U,65578,999,4268,.66843194E-4,.87E-6,0
PRAETORIAN SDA_616,2025-203Q,2026-07-15T21:59:14.022528,13.83270520,.00065481,81.3076,344.5194,120.3872,239.7932,0,U,65579,999,4265,.12585945E-3,.15E-5,0
PRAETORIAN SDA_617,2025-203R,2026-07-15T22:33:52.477344,13.83152174,.00084948,81.3051,344.3256,111.8612,248.3448,0,U,65580,999,4266,.20066864E-4,.34E-6,0
PRAETORIAN SDA_618,2025-203S,2026-07-15T21:18:51.594624,13.84225742,.00108743,81.3034,343.8957,115.1561,245.0724,0,U,65581,999,4268,.10001035E-3,.124E-5,0
PRAETORIAN SDA_619,2025-203T,2026-07-15T22:27:25.930656,13.83805816,.00093194,81.3058,344.1809,112.5062,247.7082,0,U,65582,999,4330,.92991398E-4,.115E-5,0
PRAETORIAN SDA_620,2025-203U,2026-07-15T21:34:16.431456,13.83204612,.00088314,81.3053,344.2477,109.3041,250.9071,0,U,65583,999,4266,.95215237E-4,.116E-5,0
PRAETORIAN SDA_621,2025-203V,2026-07-15T20:45:57.710592,13.83803762,.00085019,81.3034,344.1778,107.2893,252.9194,0,U,65584,999,4266,.8229872E-5,.21E-6,0
PRAETORIAN SDA_601,2025-203W,2026-07-15T22:06:44.419680,13.83169937,.00065489,81.3059,344.4550,121.9532,238.2262,0,U,65585,999,4265,.26575362E-4,.41E-6,0
VICTUS HAZE PUMA,2026-142A,2026-07-15T21:40:36.808320,15.20849861,.00250639,97.4464,94.1980,263.2799,96.5584,0,U,69646,999,403,.86177461E-4,.1846E-4,0
